STARLINK-32104          
1 59695U 24086P   26067.99879832 -.00000399  00000+0 -49896-5 0  9993
2 59695  43.0055  60.5074 0000825 257.1270 102.9489 15.27576384104044
FLOCK 4G-24             
1 62637U 25009AE  26068.72509072  .00010513  00000+0  38996-3 0  9991
2 62637  97.4061 151.5140 0001802 280.2808  79.8228 15.27784978 63732
